[{"OBJECT_NAME":"GALAXY 33 (G-33)","OBJECT_ID":"2022-128A","EPOCH":"2026-03-02T16:54:17.954208","MEAN_MOTION":1.00274158,"ECCENTRICITY":0.0001987,"INCLINATION":0.0229,"RA_OF_ASC_NODE":250.381,"ARG_OF_PERICENTER":79.2798,"MEAN_ANOMALY":311.3746,"EPHEMERIS_TYPE":0,"CLASSIFICATION_TYPE":"U","NORAD_CAT_ID":54026,"ELEMENT_SET_NO":999,"REV_AT_EPOCH":1267,"BSTAR":0,"MEAN_MOTION_DOT":6.2e-7,"MEAN_MOTION_DDOT":0},{"OBJECT_NAME":"GALAXY 34 (G-34)","OBJECT_ID":"2022-128B","EPOCH":"2026-03-02T16:55:32.835360","MEAN_MOTION":1.00270818,"ECCENTRICITY":0.0001359,"INCLINATION":0.0182,"RA_OF_ASC_NODE":158.1182,"ARG_OF_PERICENTER":184.2949,"MEAN_ANOMALY":303.0424,"EPHEMERIS_TYPE":0,"CLASSIFICATION_TYPE":"U","NORAD_CAT_ID":54027,"ELEMENT_SET_NO":999,"REV_AT_EPOCH":1284,"BSTAR":0,"MEAN_MOTION_DOT":0,"MEAN_MOTION_DDOT":0},{"OBJECT_NAME":"GALAXY 31 (G-31)","OBJECT_ID":"2022-153A","EPOCH":"2026-03-02T16:57:47.619360","MEAN_MOTION":1.00271733,"ECCENTRICITY":0.0001471,"INCLINATION":0.0189,"RA_OF_ASC_NODE":209.2906,"ARG_OF_PERICENTER":138.0128,"MEAN_ANOMALY":306.6085,"EPHEMERIS_TYPE":0,"CLASSIFICATION_TYPE":"U","NORAD_CAT_ID":54243,"ELEMENT_SET_NO":999,"REV_AT_EPOCH":606,"BSTAR":0,"MEAN_MOTION_DOT":-3.0e-8,"MEAN_MOTION_DDOT":0},{"OBJECT_NAME":"GALAXY 32 (G-32)","OBJECT_ID":"2022-153B","EPOCH":"2026-03-02T12:35:56.887008","MEAN_MOTION":1.00268682,"ECCENTRICITY":0.00030634,"INCLINATION":0.0216,"RA_OF_ASC_NODE":135.3517,"ARG_OF_PERICENTER":218.5101,"MEAN_ANOMALY":264.4439,"EPHEMERIS_TYPE":0,"CLASSIFICATION_TYPE":"U","NORAD_CAT_ID":54244,"ELEMENT_SET_NO":999,"REV_AT_EPOCH":1207,"BSTAR":0,"MEAN_MOTION_DOT":0,"MEAN_MOTION_DDOT":0},{"OBJECT_NAME":"GALAXY 35 (G-35)","OBJECT_ID":"2022-170A","EPOCH":"2026-03-02T13:40:18.559200","MEAN_MOTION":1.00271415,"ECCENTRICITY":0.0002084,"INCLINATION":0.0199,"RA_OF_ASC_NODE":119.3289,"ARG_OF_PERICENTER":219.6797,"MEAN_ANOMALY":293.3084,"EPHEMERIS_TYPE":0,"CLASSIFICATION_TYPE":"U","NORAD_CAT_ID":54741,"ELEMENT_SET_NO":999,"REV_AT_EPOCH":1182,"BSTAR":0,"MEAN_MOTION_DOT":-1.79e-6,"MEAN_MOTION_DDOT":0},{"OBJECT_NAME":"GALAXY 36 (G-36)","OBJECT_ID":"2022-170B","EPOCH":"2026-03-02T13:41:33.440352","MEAN_MOTION":1.00270828,"ECCENTRICITY":0.0001973,"INCLINATION":0.0133,"RA_OF_ASC_NODE":151.9658,"ARG_OF_PERICENTER":241.7193,"MEAN_ANOMALY":243.0339,"EPHEMERIS_TYPE":0,"CLASSIFICATION_TYPE":"U","NORAD_CAT_ID":54742,"ELEMENT_SET_NO":999,"REV_AT_EPOCH":1170,"BSTAR":0,"MEAN_MOTION_DOT":-2.02e-6,"MEAN_MOTION_DDOT":0},{"OBJECT_NAME":"GALAXY 37 (G-37)","OBJECT_ID":"2023-112A","EPOCH":"2026-03-02T16:56:02.785920","MEAN_MOTION":1.00270218,"ECCENTRICITY":0.0002088,"INCLINATION":0.0279,"RA_OF_ASC_NODE":134.0386,"ARG_OF_PERICENTER":213.4196,"MEAN_ANOMALY":300.0464,"EPHEMERIS_TYPE":0,"CLASSIFICATION_TYPE":"U","NORAD_CAT_ID":57493,"ELEMENT_SET_NO":999,"REV_AT_EPOCH":947,"BSTAR":0,"MEAN_MOTION_DOT":0,"MEAN_MOTION_DDOT":0}]
