GALAXY 33 (G-33)        
1 54026U 22128A   26061.70437447  .00000062  00000+0  00000+0 0  9999
2 54026   0.0229 250.3810 0001987  79.2798 311.3746  1.00274158 12677
GALAXY 34 (G-34)        
1 54027U 22128B   26061.70524115  .00000000  00000+0  00000+0 0  9991
2 54027   0.0182 158.1182 0001359 184.2949 303.0424  1.00270818 12840
GALAXY 31 (G-31)        
1 54243U 22153A   26061.70680115 -.00000003  00000+0  00000+0 0  9996
2 54243   0.0189 209.2906 0001471 138.0128 306.6085  1.00271733  6066
GALAXY 32 (G-32)        
1 54244U 22153B   26061.52496397  .00000000  00000+0  00000+0 0  9990
2 54244   0.0216 135.3517 0003063 218.5101 264.4439  1.00268682 12070
GALAXY 35 (G-35)        
1 54741U 22170A   26061.56965925 -.00000179  00000+0  00000+0 0  9991
2 54741   0.0199 119.3289 0002084 219.6797 293.3084  1.00271415 11822
GALAXY 36 (G-36)        
1 54742U 22170B   26061.57052593 -.00000202  00000+0  00000+0 0  9998
2 54742   0.0133 151.9658 0001973 241.7193 243.0339  1.00270828 11704
GALAXY 37 (G-37)        
1 57493U 23112A   26061.70558780  .00000000  00000+0  00000+0 0  9990
2 57493   0.0279 134.0386 0002088 213.4196 300.0464  1.00270218  9475
